OBJECT_NAME,OBJECT_ID,EPOCH,MEAN_MOTION,ECCENTRICITY,INCLINATION,RA_OF_ASC_NODE,ARG_OF_PERICENTER,MEAN_ANOMALY,EPHEMERIS_TYPE,CLASSIFICATION_TYPE,NORAD_CAT_ID,ELEMENT_SET_NO,REV_AT_EPOCH,BSTAR,MEAN_MOTION_DOT,MEAN_MOTION_DDOT
HAIYANG-2D,2021-043A,2026-06-13T16:15:56.710944,13.83375760,.00114011,65.9992,313.4369,269.5001,90.4761,0,U,48621,999,25606,.41685349E-4,-.35E-6,0
TYVAK-0173,2021-059P,2026-06-13T05:07:50.840832,14.81878741,.00104447,96.0086,241.5580,51.5551,308.6603,0,U,48892,999,26765,.21015724E-3,.1632E-4,0
MANDRAKE 2 ABLE,2021-059AE,2026-06-13T12:08:20.250816,15.54852849,.00047788,97.7029,354.0102,18.8633,341.2796,0,U,48907,999,27655,.33335897E-3,.22161E-3,0
MANDRAKE 2 BAKER,2021-059AF,2026-06-13T12:17:47.243904,15.59386909,.00032612,97.6998,356.8633,20.9059,339.2329,0,U,48908,999,27672,.35310059E-3,.27808E-3,0
PACE-1,2021-059AG,2026-06-13T13:02:13.136640,15.79260407,.00009116,97.6769,2.2751,284.8301,75.2865,0,U,48909,999,27722,.4710823E-3,.84779E-3,0
YAM-3,2021-059AN,2026-06-13T13:51:59.686560,15.48482618,.00053077,97.6987,351.2976,22.7964,337.3520,0,U,48915,999,27643,.23148031E-3,.1221E-3,0
DEMO8 (TENZING),2021-059CA,2026-06-13T12:12:40.166208,15.54863991,.00065918,97.7020,357.6489,9.5302,350.6075,0,U,48951,999,27673,.30704398E-3,.20415E-3,0
FENGYUN 3E,2021-062A,2026-06-13T14:35:21.053184,14.19903917,.00028017,98.7490,168.0554,90.4004,269.7493,0,U,49008,999,25607,-.12401892E-4,-.7E-6,0
CUTE,2021-088D,2026-06-13T13:02:33.434592,15.92136595,.00076794,97.4156,263.4887,235.4471,124.6079,0,U,49263,999,26197,.46019558E-3,.152292E-2,.10757468E-4
SDGSAT 1,2021-100A,2026-06-13T14:38:17.574432,15.19915002,.00066999,97.2641,211.6932,314.8201,45.2489,0,U,49387,999,25537,.23468943E-3,.4979E-4,0
TEIKYOSAT-4 (OORURI),2021-102B,2026-06-13T14:34:34.447296,15.09497767,.00106955,97.3671,194.2300,310.7611,49.2690,0,U,49396,999,25218,.11170725E-3,.1731E-4,0
Z-SAT,2021-102E,2026-06-13T15:20:08.856096,15.18240982,.00149241,97.3328,200.0694,258.9207,101.0350,0,U,49399,999,25290,.23089483E-3,.4673E-4,0
HIBARI,2021-102F,2026-06-13T02:04:08.667552,15.31649944,.00109463,97.3243,210.0360,206.5526,153.5156,0,U,49400,999,25356,.37545642E-3,.11423E-3,0
KOSEN-1,2021-102H,2026-06-13T14:27:42.882624,15.26789457,.00128166,97.3190,206.8294,213.6982,146.3444,0,U,49402,999,25347,.30246755E-3,.7911E-4,0
GLOBAL-14,2021-106A,2026-06-12T03:01:31.471680,15.50352851,.00166049,42.0056,321.1536,343.9678,16.0639,0,U,49469,999,25734,.43921254E-3,.25484E-3,0
GAOFEN-3 02,2021-109A,2026-06-13T15:35:07.482624,14.42216417,.00032005,98.4086,172.7961,25.1897,334.9449,0,U,49495,999,23980,.53846E-5,-.26E-6,0
GLOBAL-12,2021-115BA,2026-06-13T08:12:39.252672,15.53364821,.0003271,53.1956,63.0261,61.7631,298.3710,0,U,49772,999,25530,.53072957E-3,.33799E-3,0
GLOBAL-17,2021-120A,2026-06-13T00:50:22.900992,15.52047426,.00150933,41.9948,74.0320,229.9669,129.9852,0,U,49949,999,25425,.47497575E-3,.29314E-3,0
GLOBAL-16,2021-120B,2026-06-12T01:49:54.416064,15.49934386,.0012775,41.9944,83.3781,215.8466,144.1521,0,U,49950,999,25405,.41126171E-3,.23428E-3,0
XW-3 (CAS-9),2021-131B,2026-06-13T14:00:27.230400,14.41353968,.00053114,98.4979,256.9926,104.5655,255.6123,0,U,50466,999,23459,.12083418E-3,.347E-5,0
ION SCV-004,2022-002K,2026-06-13T15:19:37.896384,15.30419491,.00075569,97.2841,222.3638,20.3906,339.7636,0,U,50993,999,24475,.19088542E-3,.5544E-4,0
ETV-A1,2022-002CE,2026-06-13T13:42:48.182400,15.40612152,.00049324,97.2886,230.8867,16.8894,343.2516,0,U,51060,999,24528,.27119512E-3,.10963E-3,0
BRO-5,2022-002CF,2026-06-13T15:06:14.023872,15.47180977,.00039024,97.3006,238.2666,347.4821,12.6332,0,U,51061,999,24570,.55172981E-3,.28004E-3,0
