{"fetched_at":"2026-06-14T13:59:49Z","count":9400,"tles":[{"name":"FENGYUN 3E","line1":"1 49008U 21062A   26164.60788256 -.00000070  00000+0 -12402-4 0  9994","line2":"2 49008  98.7490 168.0554 0002801  90.4004 269.7493 14.19903917256071","category":"Weather"},{"name":"KOSEN-1","line1":"1 49402U 21102H   26164.60257966  .00007911  00000+0  30247-3 0  9991","line2":"2 49402  97.3190 206.8294 0012816 213.6982 146.3444 15.26789457253471","category":"Other"},{"name":"YAM-3","line1":"1 48915U 21059AN  26164.57777415  .00012210  00000+0  23148-3 0  9992","line2":"2 48915  97.6987 351.2976 0005307  22.7964 337.3520 15.48482618276435","category":"Other"},{"name":"MANDRAKE 2 ABLE","line1":"1 48907U 21059AE  26164.50578994  .00022161  00000+0  33336-3 0  9993","line2":"2 48907  97.7029 354.0102 0004778  18.8633 341.2796 15.54852849276552","category":"Other"},{"name":"HAIYANG-2D","line1":"1 48621U 21043A   26164.67773971 -.00000035  00000+0  41685-4 0  9993","line2":"2 48621  65.9992 313.4369 0011401 269.5001  90.4761 13.83375760256061","category":"Other"},{"name":"GAOFEN-3 02","line1":"1 49495U 21109A   26164.64939216 -.00000026  00000+0  53846-5 0  9992","line2":"2 49495  98.4086 172.7961 0003200  25.1897 334.9449 14.42216417239808","category":"Other"},{"name":"GLOBAL-17","line1":"1 49949U 21120A   26164.03498728  .00029314  00000+0  47498-3 0  9994","line2":"2 49949  41.9948  74.0320 0015093 229.9669 129.9852 15.52047426254259","category":"Other"},{"name":"MANDRAKE 2 BAKER","line1":"1 48908U 21059AF  26164.51235236  .00027808  00000+0  35310-3 0  9991","line2":"2 48908  97.6998 356.8633 0003261  20.9059 339.2329 15.59386909276720","category":"Other"},{"name":"SDGSAT 1","line1":"1 49387U 21100A   26164.60992563  .00004979  00000+0  23469-3 0  9999","line2":"2 49387  97.2641 211.6932 0006699 314.8201  45.2489 15.19915002255372","category":"Other"},{"name":"GLOBAL-14","line1":"1 49469U 21106A   26163.12605870  .00025484  00000+0  43921-3 0  9993","line2":"2 49469  42.0056 321.1536 0016604 343.9678  16.0639 15.50352851257340","category":"Other"},{"name":"DEMO8 (TENZING)","line1":"1 48951U 21059CA  26164.50879822  .00020415  00000+0  30704-3 0  9992","line2":"2 48951  97.7020 357.6489 0006591   9.5302 350.6075 15.54863991276738","category":"Other"},{"name":"GLOBAL-16","line1":"1 49950U 21120B   26163.07632426  .00023428  00000+0  41126-3 0  9996","line2":"2 49950  41.9944  83.3781 0012775 215.8466 144.1521 15.49934386254050","category":"Other"},{"name":"GLOBAL-12","line1":"1 49772U 21115BA  26164.34212098  .00033799  00000+0  53073-3 0  9998","line2":"2 49772  53.1956  63.0261 0003271  61.7631 298.3710 15.53364821255308","category":"Other"},{"name":"ION SCV-004","line1":"1 50993U 22002K   26164.63863306  .00005544  00000+0  19089-3 0  9993","line2":"2 50993  97.2841 222.3638 0007556  20.3906 339.7636 15.30419491244754","category":"Other"},{"name":"BRO-5","line1":"1 51061U 22002CF  26164.62932898  .00028004  00000+0  55173-3 0  9992","line2":"2 51061  97.3006 238.2666 0003902 347.4821  12.6332 15.47180977245700","category":"Other"},{"name":"TEIKYOSAT-4 (OORURI)","line1":"1 49396U 21102B   26164.60734314  .00001731  00000+0  11171-3 0  9999","line2":"2 49396  97.3671 194.2300 0010695 310.7611  49.2690 15.09497767252188","category":"Other"},{"name":"XW-3 (CAS-9)","line1":"1 50466U 21131B   26164.58364850  .00000347  00000+0  12083-3 0  9997","line2":"2 50466  98.4979 256.9926 0005311 104.5655 255.6123 14.41353968234595","category":"Other"},{"name":"CUTE","line1":"1 49263U 21088D   26164.54344253  .00152292  10757-4  46020-3 0  9992","line2":"2 49263  97.4156 263.4887 0007679 235.4471 124.6079 15.92136595261971","category":"Other"},{"name":"PACE-1","line1":"1 48909U 21059AG  26164.54320760  .00084779  00000+0  47108-3 0  9990","line2":"2 48909  97.6769   2.2751 0000911 284.8301  75.2865 15.79260407277224","category":"Other"},{"name":"ETV-A1","line1":"1 51060U 22002CE  26164.57139100  .00010963  00000+0  27120-3 0  9996","line2":"2 51060  97.2886 230.8867 0004932  16.8894 343.2516 15.40612152245284","category":"Other"},{"name":"Z-SAT","line1":"1 49399U 21102E   26164.63899139  .00004673  00000+0  23089-3 0  9991","line2":"2 49399  97.3328 200.0694 0014924 258.9207 101.0350 15.18240982252900","category":"Other"},{"name":"TYVAK-0173","line1":"1 48892U 21059P   26164.21378288  .00001632  00000+0  21016-3 0  9990","line2":"2 48892  96.0086 241.5580 0010444  51.5551 308.6603 14.81878741267653","category":"Other"},{"name":"HIBARI","line1":"1 49400U 21102F   26164.08621143  .00011423  00000+0  37546-3 0  9995","line2":"2 49400  97.3243 210.0360 0010946 206.5526 153.5156 15.31649944253568","category":"Other"}]}